[{"OBJECT_NAME":"STARLINK-36310","OBJECT_ID":"2026-054N","EPOCH":"2026-03-28T22:00:01.999584","MEAN_MOTION":15.80832312,"ECCENTRICITY":9.88e-5,"INCLINATION":53.1593,"RA_OF_ASC_NODE":216.2027,"ARG_OF_PERICENTER":103.4922,"MEAN_ANOMALY":345.365,"EPHEMERIS_TYPE":0,"CLASSIFICATION_TYPE":"U","NORAD_CAT_ID":68244,"ELEMENT_SET_NO":999,"REV_AT_EPOCH":304,"BSTAR":0.00020384736,"MEAN_MOTION_DOT":0.00039643,"MEAN_MOTION_DDOT":0},{"OBJECT_NAME":"STARLINK-36247","OBJECT_ID":"2026-054P","EPOCH":"2026-03-28T22:00:01.999584","MEAN_MOTION":15.80818151,"ECCENTRICITY":0.00010029,"INCLINATION":53.1592,"RA_OF_ASC_NODE":216.2119,"ARG_OF_PERICENTER":69.1485,"MEAN_ANOMALY":15.4399,"EPHEMERIS_TYPE":0,"CLASSIFICATION_TYPE":"U","NORAD_CAT_ID":68245,"ELEMENT_SET_NO":999,"REV_AT_EPOCH":304,"BSTAR":0.00040300314,"MEAN_MOTION_DOT":0.00079372,"MEAN_MOTION_DDOT":0},{"OBJECT_NAME":"STARLINK-37043","OBJECT_ID":"2026-054Q","EPOCH":"2026-03-28T22:00:01.999584","MEAN_MOTION":15.80859855,"ECCENTRICITY":0.00012076,"INCLINATION":53.1593,"RA_OF_ASC_NODE":216.1941,"ARG_OF_PERICENTER":77.8838,"MEAN_ANOMALY":15.2359,"EPHEMERIS_TYPE":0,"CLASSIFICATION_TYPE":"U","NORAD_CAT_ID":68246,"ELEMENT_SET_NO":999,"REV_AT_EPOCH":300,"BSTAR":-5.811307e-6,"MEAN_MOTION_DOT":-1.845e-5,"MEAN_MOTION_DDOT":0},{"OBJECT_NAME":"STARLINK-37044","OBJECT_ID":"2026-054R","EPOCH":"2026-03-28T20:00:01.999872","MEAN_MOTION":15.80837367,"ECCENTRICITY":7.916e-5,"INCLINATION":53.1593,"RA_OF_ASC_NODE":216.6034,"ARG_OF_PERICENTER":75.5195,"MEAN_ANOMALY":267.3291,"EPHEMERIS_TYPE":0,"CLASSIFICATION_TYPE":"U","NORAD_CAT_ID":68247,"ELEMENT_SET_NO":999,"REV_AT_EPOCH":299,"BSTAR":0.00041955732,"MEAN_MOTION_DOT":0.00082768,"MEAN_MOTION_DDOT":0},{"OBJECT_NAME":"STARLINK-36997","OBJECT_ID":"2026-054S","EPOCH":"2026-03-28T20:00:01.999872","MEAN_MOTION":15.7717453,"ECCENTRICITY":7.815e-5,"INCLINATION":53.1593,"RA_OF_ASC_NODE":216.6064,"ARG_OF_PERICENTER":60.3525,"MEAN_ANOMALY":280.9681,"EPHEMERIS_TYPE":0,"CLASSIFICATION_TYPE":"U","NORAD_CAT_ID":68248,"ELEMENT_SET_NO":999,"REV_AT_EPOCH":299,"BSTAR":-0.0124372,"MEAN_MOTION_DOT":-0.01820009,"MEAN_MOTION_DDOT":0},{"OBJECT_NAME":"STARLINK-37141","OBJECT_ID":"2026-054T","EPOCH":"2026-03-28T20:00:01.999872","MEAN_MOTION":15.8083276,"ECCENTRICITY":9.167e-5,"INCLINATION":53.1594,"RA_OF_ASC_NODE":216.5862,"ARG_OF_PERICENTER":65.9684,"MEAN_ANOMALY":285.4237,"EPHEMERIS_TYPE":0,"CLASSIFICATION_TYPE":"U","NORAD_CAT_ID":68249,"ELEMENT_SET_NO":999,"REV_AT_EPOCH":307,"BSTAR":0.00043748664,"MEAN_MOTION_DOT":0.00086352,"MEAN_MOTION_DDOT":0},{"OBJECT_NAME":"STARLINK-37087","OBJECT_ID":"2026-054U","EPOCH":"2026-03-28T20:00:01.999872","MEAN_MOTION":15.80824536,"ECCENTRICITY":0.00010677,"INCLINATION":53.1594,"RA_OF_ASC_NODE":216.577,"ARG_OF_PERICENTER":105.6631,"MEAN_ANOMALY":250.0123,"EPHEMERIS_TYPE":0,"CLASSIFICATION_TYPE":"U","NORAD_CAT_ID":68250,"ELEMENT_SET_NO":999,"REV_AT_EPOCH":299,"BSTAR":0.00050736479,"MEAN_MOTION_DOT":0.00100383,"MEAN_MOTION_DDOT":0},{"OBJECT_NAME":"STARLINK-36274","OBJECT_ID":"2026-054V","EPOCH":"2026-03-28T20:00:01.999872","MEAN_MOTION":15.7946737,"ECCENTRICITY":8.433e-5,"INCLINATION":53.1594,"RA_OF_ASC_NODE":216.5699,"ARG_OF_PERICENTER":63.0392,"MEAN_ANOMALY":296.0651,"EPHEMERIS_TYPE":0,"CLASSIFICATION_TYPE":"U","NORAD_CAT_ID":68251,"ELEMENT_SET_NO":999,"REV_AT_EPOCH":303,"BSTAR":-0.011571775,"MEAN_MOTION_DOT":-0.01872005,"MEAN_MOTION_DDOT":0},{"OBJECT_NAME":"STARLINK-37085","OBJECT_ID":"2026-054W","EPOCH":"2026-03-28T20:00:01.999872","MEAN_MOTION":15.80817909,"ECCENTRICITY":0.00011231,"INCLINATION":53.1593,"RA_OF_ASC_NODE":216.559,"ARG_OF_PERICENTER":111.1952,"MEAN_ANOMALY":253.0402,"EPHEMERIS_TYPE":0,"CLASSIFICATION_TYPE":"U","NORAD_CAT_ID":68252,"ELEMENT_SET_NO":999,"REV_AT_EPOCH":299,"BSTAR":0.00031914924,"MEAN_MOTION_DOT":0.00062588,"MEAN_MOTION_DDOT":0},{"OBJECT_NAME":"STARLINK-37086","OBJECT_ID":"2026-054X","EPOCH":"2026-03-28T20:00:01.999872","MEAN_MOTION":15.80814568,"ECCENTRICITY":0.00012176,"INCLINATION":53.1592,"RA_OF_ASC_NODE":216.5508,"ARG_OF_PERICENTER":93.4602,"MEAN_ANOMALY":275.0265,"EPHEMERIS_TYPE":0,"CLASSIFICATION_TYPE":"U","NORAD_CAT_ID":68253,"ELEMENT_SET_NO":999,"REV_AT_EPOCH":299,"BSTAR":0.00051213109,"MEAN_MOTION_DOT":0.00101298,"MEAN_MOTION_DDOT":0},{"OBJECT_NAME":"STARLINK-37084","OBJECT_ID":"2026-054Y","EPOCH":"2026-03-28T20:00:01.999872","MEAN_MOTION":15.80839201,"ECCENTRICITY":0.00010384,"INCLINATION":53.1592,"RA_OF_ASC_NODE":216.533,"ARG_OF_PERICENTER":99.037,"MEAN_ANOMALY":278.0057,"EPHEMERIS_TYPE":0,"CLASSIFICATION_TYPE":"U","NORAD_CAT_ID":68254,"ELEMENT_SET_NO":999,"REV_AT_EPOCH":299,"BSTAR":0.00014412686,"MEAN_MOTION_DOT":0.00027794,"MEAN_MOTION_DDOT":0},{"OBJECT_NAME":"STARLINK-37075","OBJECT_ID":"2026-054Z","EPOCH":"2026-03-28T20:00:01.999872","MEAN_MOTION":15.80841483,"ECCENTRICITY":9.59e-5,"INCLINATION":53.1592,"RA_OF_ASC_NODE":216.5417,"ARG_OF_PERICENTER":82.5409,"MEAN_ANOMALY":290.2108,"EPHEMERIS_TYPE":0,"CLASSIFICATION_TYPE":"U","NORAD_CAT_ID":68255,"ELEMENT_SET_NO":999,"REV_AT_EPOCH":299,"BSTAR":0.00025360224,"MEAN_MOTION_DOT":0.00049569,"MEAN_MOTION_DDOT":0},{"OBJECT_NAME":"STARLINK-36333","OBJECT_ID":"2026-054AA","EPOCH":"2026-03-28T20:00:01.999872","MEAN_MOTION":15.80829417,"ECCENTRICITY":0.00010453,"INCLINATION":53.1591,"RA_OF_ASC_NODE":216.5241,"ARG_OF_PERICENTER":63.7224,"MEAN_ANOMALY":317.5737,"EPHEMERIS_TYPE":0,"CLASSIFICATION_TYPE":"U","NORAD_CAT_ID":68256,"ELEMENT_SET_NO":999,"REV_AT_EPOCH":303,"BSTAR":0.00045950762,"MEAN_MOTION_DOT":0.00090767,"MEAN_MOTION_DDOT":0},{"OBJECT_NAME":"STARLINK-36745","OBJECT_ID":"2026-054AB","EPOCH":"2026-03-28T20:00:01.999872","MEAN_MOTION":15.80860719,"ECCENTRICITY":0.0001458,"INCLINATION":53.1592,"RA_OF_ASC_NODE":216.5059,"ARG_OF_PERICENTER":64.0507,"MEAN_ANOMALY":325.7577,"EPHEMERIS_TYPE":0,"CLASSIFICATION_TYPE":"U","NORAD_CAT_ID":68257,"ELEMENT_SET_NO":999,"REV_AT_EPOCH":299,"BSTAR":0.00013691573,"MEAN_MOTION_DOT":0.00026391,"MEAN_MOTION_DDOT":0},{"OBJECT_NAME":"STARLINK-36890","OBJECT_ID":"2026-054AC","EPOCH":"2026-03-28T20:00:01.999872","MEAN_MOTION":15.8084309,"ECCENTRICITY":0.00012961,"INCLINATION":53.159,"RA_OF_ASC_NODE":216.4976,"ARG_OF_PERICENTER":63.7484,"MEAN_ANOMALY":330.3569,"EPHEMERIS_TYPE":0,"CLASSIFICATION_TYPE":"U","NORAD_CAT_ID":68258,"ELEMENT_SET_NO":999,"REV_AT_EPOCH":299,"BSTAR":0.00034627741,"MEAN_MOTION_DOT":0.00068091,"MEAN_MOTION_DDOT":0},{"OBJECT_NAME":"STARLINK-36323","OBJECT_ID":"2026-054AD","EPOCH":"2026-03-28T20:00:01.999872","MEAN_MOTION":15.80847321,"ECCENTRICITY":0.00012083,"INCLINATION":53.159,"RA_OF_ASC_NODE":216.5153,"ARG_OF_PERICENTER":78.4932,"MEAN_ANOMALY":307.0851,"EPHEMERIS_TYPE":0,"CLASSIFICATION_TYPE":"U","NORAD_CAT_ID":68259,"ELEMENT_SET_NO":999,"REV_AT_EPOCH":303,"BSTAR":0.00010990161,"MEAN_MOTION_DOT":0.00021019,"MEAN_MOTION_DDOT":0}]
