STARLINK-36310          
1 68244U 26054N   26087.91668981  .00039643  00000+0  20385-3 0  9997
2 68244  53.1593 216.2027 0000988 103.4922 345.3650 15.80832312  3044
STARLINK-36247          
1 68245U 26054P   26087.91668981  .00079372  00000+0  40300-3 0  9990
2 68245  53.1592 216.2119 0001002  69.1485  15.4399 15.80818151  3046
STARLINK-37043          
1 68246U 26054Q   26087.91668981 -.00001845  00000+0 -58113-5 0  9996
2 68246  53.1593 216.1941 0001207  77.8838  15.2359 15.80859855  3001
STARLINK-37044          
1 68247U 26054R   26087.83335648  .00082768  00000+0  41956-3 0  9995
2 68247  53.1593 216.6034 0000791  75.5195 267.3291 15.80837367  2994
STARLINK-36997          
1 68248U 26054S   26087.83335648 -.01820009  00000+0 -12437-1 0  9997
2 68248  53.1593 216.6064 0000781  60.3525 280.9681 15.77174530  2992
STARLINK-37141          
1 68249U 26054T   26087.83335648  .00086352  00000+0  43749-3 0  9992
2 68249  53.1594 216.5862 0000916  65.9684 285.4237 15.80832760  3073
STARLINK-37087          
1 68250U 26054U   26087.83335648  .00100383  00000+0  50736-3 0  9999
2 68250  53.1594 216.5770 0001067 105.6631 250.0123 15.80824536  2999
STARLINK-36274          
1 68251U 26054V   26087.83335648 -.01872005  00000+0 -11572-1 0  9993
2 68251  53.1594 216.5699 0000843  63.0392 296.0651 15.79467370  3031
STARLINK-37085          
1 68252U 26054W   26087.83335648  .00062588  00000+0  31915-3 0  9993
2 68252  53.1593 216.5590 0001123 111.1952 253.0402 15.80817909  2990
STARLINK-37086          
1 68253U 26054X   26087.83335648  .00101298  00000+0  51213-3 0  9999
2 68253  53.1592 216.5508 0001217  93.4602 275.0265 15.80814568  2996
STARLINK-37084          
1 68254U 26054Y   26087.83335648  .00027794  00000+0  14413-3 0  9999
2 68254  53.1592 216.5330 0001038  99.0370 278.0057 15.80839201  2998
STARLINK-37075          
1 68255U 26054Z   26087.83335648  .00049569  00000+0  25360-3 0  9997
2 68255  53.1592 216.5417 0000959  82.5409 290.2108 15.80841483  2994
STARLINK-36333          
1 68256U 26054AA  26087.83335648  .00090767  00000+0  45951-3 0  9992
2 68256  53.1591 216.5241 0001045  63.7224 317.5737 15.80829417  3032
STARLINK-36745          
1 68257U 26054AB  26087.83335648  .00026391  00000+0  13692-3 0  9992
2 68257  53.1592 216.5059 0001458  64.0507 325.7577 15.80860719  2994
STARLINK-36890          
1 68258U 26054AC  26087.83335648  .00068091  00000+0  34628-3 0  9998
2 68258  53.1590 216.4976 0001296  63.7484 330.3569 15.80843090  2996
STARLINK-36323          
1 68259U 26054AD  26087.83335648  .00021019  00000+0  10990-3 0  9994
2 68259  53.1590 216.5153 0001208  78.4932 307.0851 15.80847321  3031
